[{"OBJECT_NAME":"STARLINK-35316","OBJECT_ID":"2025-216J","EPOCH":"2025-12-26T06:39:51.793920","MEAN_MOTION":15.30204583,"ECCENTRICITY":0.00010225,"INCLINATION":53.1602,"RA_OF_ASC_NODE":313.9063,"ARG_OF_PERICENTER":76.0684,"MEAN_ANOMALY":284.043,"EPHEMERIS_TYPE":0,"CLASSIFICATION_TYPE":"U","NORAD_CAT_ID":65742,"ELEMENT_SET_NO":999,"REV_AT_EPOCH":1422,"BSTAR":0.00096715999,"MEAN_MOTION_DOT":0.00028399,"MEAN_MOTION_DDOT":0},{"OBJECT_NAME":"STARLINK-35319","OBJECT_ID":"2025-216K","EPOCH":"2025-12-26T05:52:43.419072","MEAN_MOTION":15.30257542,"ECCENTRICITY":0.00010378,"INCLINATION":53.1602,"RA_OF_ASC_NODE":313.6957,"ARG_OF_PERICENTER":80.0847,"MEAN_ANOMALY":280.0271,"EPHEMERIS_TYPE":0,"CLASSIFICATION_TYPE":"U","NORAD_CAT_ID":65743,"ELEMENT_SET_NO":999,"REV_AT_EPOCH":1535,"BSTAR":0.0015376425,"MEAN_MOTION_DOT":0.00045542,"MEAN_MOTION_DDOT":0},{"OBJECT_NAME":"STARLINK-35173","OBJECT_ID":"2025-216L","EPOCH":"2025-12-26T14:02:46.597056","MEAN_MOTION":15.30210301,"ECCENTRICITY":0.00010412,"INCLINATION":53.1597,"RA_OF_ASC_NODE":312.2665,"ARG_OF_PERICENTER":97.7594,"MEAN_ANOMALY":262.3525,"EPHEMERIS_TYPE":0,"CLASSIFICATION_TYPE":"U","NORAD_CAT_ID":65744,"ELEMENT_SET_NO":999,"REV_AT_EPOCH":1540,"BSTAR":0.00064501415,"MEAN_MOTION_DOT":0.00018799,"MEAN_MOTION_DDOT":0},{"OBJECT_NAME":"STARLINK-34808","OBJECT_ID":"2025-216M","EPOCH":"2025-12-26T02:35:31.568928","MEAN_MOTION":15.30215067,"ECCENTRICITY":0.00018986,"INCLINATION":53.1595,"RA_OF_ASC_NODE":314.2615,"ARG_OF_PERICENTER":137.8167,"MEAN_ANOMALY":222.2981,"EPHEMERIS_TYPE":0,"CLASSIFICATION_TYPE":"U","NORAD_CAT_ID":65745,"ELEMENT_SET_NO":999,"REV_AT_EPOCH":1525,"BSTAR":0.00087683727,"MEAN_MOTION_DOT":0.00025712,"MEAN_MOTION_DDOT":0},{"OBJECT_NAME":"STARLINK-34704","OBJECT_ID":"2025-216N","EPOCH":"2025-12-26T03:49:59.350944","MEAN_MOTION":15.30197449,"ECCENTRICITY":0.00011148,"INCLINATION":53.1603,"RA_OF_ASC_NODE":314.5849,"ARG_OF_PERICENTER":123.9037,"MEAN_ANOMALY":236.207,"EPHEMERIS_TYPE":0,"CLASSIFICATION_TYPE":"U","NORAD_CAT_ID":65746,"ELEMENT_SET_NO":999,"REV_AT_EPOCH":1527,"BSTAR":0.00098489647,"MEAN_MOTION_DOT":0.00028922,"MEAN_MOTION_DDOT":0},{"OBJECT_NAME":"STARLINK-35214","OBJECT_ID":"2025-216P","EPOCH":"2025-12-26T03:30:14.085504","MEAN_MOTION":15.30196155,"ECCENTRICITY":7.883e-5,"INCLINATION":53.1622,"RA_OF_ASC_NODE":314.4972,"ARG_OF_PERICENTER":112.0163,"MEAN_ANOMALY":248.0921,"EPHEMERIS_TYPE":0,"CLASSIFICATION_TYPE":"U","NORAD_CAT_ID":65747,"ELEMENT_SET_NO":999,"REV_AT_EPOCH":1528,"BSTAR":0.00087075852,"MEAN_MOTION_DOT":0.00025516,"MEAN_MOTION_DDOT":0},{"OBJECT_NAME":"STARLINK-35265","OBJECT_ID":"2025-216Q","EPOCH":"2025-12-26T14:36:12.594240","MEAN_MOTION":15.30202601,"ECCENTRICITY":0.00018296,"INCLINATION":53.1603,"RA_OF_ASC_NODE":312.4127,"ARG_OF_PERICENTER":91.6125,"MEAN_ANOMALY":268.5086,"EPHEMERIS_TYPE":0,"CLASSIFICATION_TYPE":"U","NORAD_CAT_ID":65748,"ELEMENT_SET_NO":999,"REV_AT_EPOCH":1427,"BSTAR":0.00072924833,"MEAN_MOTION_DOT":0.00021303,"MEAN_MOTION_DDOT":0},{"OBJECT_NAME":"STARLINK-35288","OBJECT_ID":"2025-216R","EPOCH":"2025-12-26T01:53:07.930464","MEAN_MOTION":15.30169402,"ECCENTRICITY":0.00010326,"INCLINATION":53.1611,"RA_OF_ASC_NODE":314.792,"ARG_OF_PERICENTER":79.1743,"MEAN_ANOMALY":280.9374,"EPHEMERIS_TYPE":0,"CLASSIFICATION_TYPE":"U","NORAD_CAT_ID":65749,"ELEMENT_SET_NO":999,"REV_AT_EPOCH":1524,"BSTAR":0.00058901565,"MEAN_MOTION_DOT":0.0001711,"MEAN_MOTION_DDOT":0},{"OBJECT_NAME":"STARLINK-35165","OBJECT_ID":"2025-216S","EPOCH":"2025-12-26T14:07:20.582688","MEAN_MOTION":15.30198878,"ECCENTRICITY":0.00016286,"INCLINATION":53.1607,"RA_OF_ASC_NODE":312.2846,"ARG_OF_PERICENTER":71.8429,"MEAN_ANOMALY":288.2749,"EPHEMERIS_TYPE":0,"CLASSIFICATION_TYPE":"U","NORAD_CAT_ID":65750,"ELEMENT_SET_NO":999,"REV_AT_EPOCH":1532,"BSTAR":0.0011251293,"MEAN_MOTION_DOT":0.00033111,"MEAN_MOTION_DDOT":0},{"OBJECT_NAME":"STARLINK-35260","OBJECT_ID":"2025-216T","EPOCH":"2025-12-26T13:58:13.752768","MEAN_MOTION":15.30241332,"ECCENTRICITY":0.00015568,"INCLINATION":53.1609,"RA_OF_ASC_NODE":312.2457,"ARG_OF_PERICENTER":87.8651,"MEAN_ANOMALY":272.2528,"EPHEMERIS_TYPE":0,"CLASSIFICATION_TYPE":"U","NORAD_CAT_ID":65751,"ELEMENT_SET_NO":999,"REV_AT_EPOCH":1535,"BSTAR":0.0015292089,"MEAN_MOTION_DOT":0.00045266,"MEAN_MOTION_DDOT":0},{"OBJECT_NAME":"STARLINK-34893","OBJECT_ID":"2025-216U","EPOCH":"2025-12-26T03:46:57.173952","MEAN_MOTION":15.30191659,"ECCENTRICITY":0.00013147,"INCLINATION":53.1604,"RA_OF_ASC_NODE":314.5764,"ARG_OF_PERICENTER":100.1347,"MEAN_ANOMALY":259.9802,"EPHEMERIS_TYPE":0,"CLASSIFICATION_TYPE":"U","NORAD_CAT_ID":65752,"ELEMENT_SET_NO":999,"REV_AT_EPOCH":1525,"BSTAR":0.0011034708,"MEAN_MOTION_DOT":0.00032457,"MEAN_MOTION_DDOT":0},{"OBJECT_NAME":"STARLINK-34894","OBJECT_ID":"2025-216V","EPOCH":"2025-12-26T14:16:27.432480","MEAN_MOTION":15.30213621,"ECCENTRICITY":0.00015198,"INCLINATION":53.1604,"RA_OF_ASC_NODE":312.3261,"ARG_OF_PERICENTER":80.0686,"MEAN_ANOMALY":280.0486,"EPHEMERIS_TYPE":0,"CLASSIFICATION_TYPE":"U","NORAD_CAT_ID":65753,"ELEMENT_SET_NO":999,"REV_AT_EPOCH":1532,"BSTAR":0.0011825493,"MEAN_MOTION_DOT":0.00034844,"MEAN_MOTION_DDOT":0},{"OBJECT_NAME":"STARLINK-35287","OBJECT_ID":"2025-216W","EPOCH":"2025-12-26T13:38:27.626784","MEAN_MOTION":15.30193681,"ECCENTRICITY":0.00011758,"INCLINATION":53.1603,"RA_OF_ASC_NODE":312.1556,"ARG_OF_PERICENTER":91.0228,"MEAN_ANOMALY":269.0907,"EPHEMERIS_TYPE":0,"CLASSIFICATION_TYPE":"U","NORAD_CAT_ID":65754,"ELEMENT_SET_NO":999,"REV_AT_EPOCH":1531,"BSTAR":0.00092225643,"MEAN_MOTION_DOT":0.0002705,"MEAN_MOTION_DDOT":0},{"OBJECT_NAME":"STARLINK-35294","OBJECT_ID":"2025-216X","EPOCH":"2025-12-26T05:58:50.200032","MEAN_MOTION":15.30170852,"ECCENTRICITY":0.00010502,"INCLINATION":53.1594,"RA_OF_ASC_NODE":313.7253,"ARG_OF_PERICENTER":86.8373,"MEAN_ANOMALY":273.2747,"EPHEMERIS_TYPE":0,"CLASSIFICATION_TYPE":"U","NORAD_CAT_ID":65755,"ELEMENT_SET_NO":999,"REV_AT_EPOCH":1530,"BSTAR":-0.00042169973,"MEAN_MOTION_DOT":-0.00012816,"MEAN_MOTION_DDOT":0},{"OBJECT_NAME":"STARLINK-35275","OBJECT_ID":"2025-216Y","EPOCH":"2025-12-26T03:45:27.309312","MEAN_MOTION":15.30186856,"ECCENTRICITY":0.00011558,"INCLINATION":53.1608,"RA_OF_ASC_NODE":314.5623,"ARG_OF_PERICENTER":100.1595,"MEAN_ANOMALY":259.9536,"EPHEMERIS_TYPE":0,"CLASSIFICATION_TYPE":"U","NORAD_CAT_ID":65756,"ELEMENT_SET_NO":999,"REV_AT_EPOCH":1528,"BSTAR":0.0011741365,"MEAN_MOTION_DOT":0.00034563,"MEAN_MOTION_DDOT":0},{"OBJECT_NAME":"STARLINK-35211","OBJECT_ID":"2025-216Z","EPOCH":"2025-12-26T14:33:10.101888","MEAN_MOTION":15.3020658,"ECCENTRICITY":0.00014938,"INCLINATION":53.1619,"RA_OF_ASC_NODE":312.3915,"ARG_OF_PERICENTER":90.3919,"MEAN_ANOMALY":269.7253,"EPHEMERIS_TYPE":0,"CLASSIFICATION_TYPE":"U","NORAD_CAT_ID":65757,"ELEMENT_SET_NO":999,"REV_AT_EPOCH":1535,"BSTAR":0.0012055085,"MEAN_MOTION_DOT":0.00035523,"MEAN_MOTION_DDOT":0},{"OBJECT_NAME":"STARLINK-35313","OBJECT_ID":"2025-216AA","EPOCH":"2025-12-26T06:33:47.109024","MEAN_MOTION":15.30199506,"ECCENTRICITY":0.00011866,"INCLINATION":53.162,"RA_OF_ASC_NODE":313.8689,"ARG_OF_PERICENTER":76.3042,"MEAN_ANOMALY":283.8091,"EPHEMERIS_TYPE":0,"CLASSIFICATION_TYPE":"U","NORAD_CAT_ID":65758,"ELEMENT_SET_NO":999,"REV_AT_EPOCH":1526,"BSTAR":0.001298818,"MEAN_MOTION_DOT":0.00038306,"MEAN_MOTION_DDOT":0},{"OBJECT_NAME":"STARLINK-34692","OBJECT_ID":"2025-216AB","EPOCH":"2025-12-26T04:00:37.605024","MEAN_MOTION":15.3018784,"ECCENTRICITY":0.0001259,"INCLINATION":53.1605,"RA_OF_ASC_NODE":314.6262,"ARG_OF_PERICENTER":102.835,"MEAN_ANOMALY":257.2791,"EPHEMERIS_TYPE":0,"CLASSIFICATION_TYPE":"U","NORAD_CAT_ID":65759,"ELEMENT_SET_NO":999,"REV_AT_EPOCH":1524,"BSTAR":0.0014786769,"MEAN_MOTION_DOT":0.00043676,"MEAN_MOTION_DDOT":0},{"OBJECT_NAME":"STARLINK-34890","OBJECT_ID":"2025-216AC","EPOCH":"2025-12-26T05:39:04.551840","MEAN_MOTION":15.30193933,"ECCENTRICITY":0.000105,"INCLINATION":53.1607,"RA_OF_ASC_NODE":313.6327,"ARG_OF_PERICENTER":95.9863,"MEAN_ANOMALY":264.1258,"EPHEMERIS_TYPE":0,"CLASSIFICATION_TYPE":"U","NORAD_CAT_ID":65760,"ELEMENT_SET_NO":999,"REV_AT_EPOCH":1529,"BSTAR":0.0013209343,"MEAN_MOTION_DOT":0.00038961,"MEAN_MOTION_DDOT":0},{"OBJECT_NAME":"STARLINK-34889","OBJECT_ID":"2025-216AD","EPOCH":"2025-12-26T07:02:39.261408","MEAN_MOTION":15.30192049,"ECCENTRICITY":0.00011699,"INCLINATION":53.16,"RA_OF_ASC_NODE":313.9956,"ARG_OF_PERICENTER":81.147,"MEAN_ANOMALY":278.9663,"EPHEMERIS_TYPE":0,"CLASSIFICATION_TYPE":"U","NORAD_CAT_ID":65761,"ELEMENT_SET_NO":999,"REV_AT_EPOCH":1535,"BSTAR":0.00074785759,"MEAN_MOTION_DOT":0.0002185,"MEAN_MOTION_DDOT":0},{"OBJECT_NAME":"STARLINK-35330","OBJECT_ID":"2025-218A","EPOCH":"2025-12-26T13:46:15.421440","MEAN_MOTION":15.05660923,"ECCENTRICITY":0.00012644,"INCLINATION":97.6021,"RA_OF_ASC_NODE":220.8182,"ARG_OF_PERICENTER":79.9799,"MEAN_ANOMALY":280.1571,"EPHEMERIS_TYPE":0,"CLASSIFICATION_TYPE":"U","NORAD_CAT_ID":65791,"ELEMENT_SET_NO":999,"REV_AT_EPOCH":1396,"BSTAR":0.001086031,"MEAN_MOTION_DOT":0.00015649,"MEAN_MOTION_DDOT":0},{"OBJECT_NAME":"STARLINK-35373","OBJECT_ID":"2025-218B","EPOCH":"2025-12-26T14:34:08.816736","MEAN_MOTION":15.05662898,"ECCENTRICITY":0.00022337,"INCLINATION":97.6025,"RA_OF_ASC_NODE":220.9304,"ARG_OF_PERICENTER":77.9475,"MEAN_ANOMALY":282.2002,"EPHEMERIS_TYPE":0,"CLASSIFICATION_TYPE":"U","NORAD_CAT_ID":65792,"ELEMENT_SET_NO":999,"REV_AT_EPOCH":1397,"BSTAR":0.00051292045,"MEAN_MOTION_DOT":7.351e-5,"MEAN_MOTION_DDOT":0},{"OBJECT_NAME":"STARLINK-35383","OBJECT_ID":"2025-218C","EPOCH":"2025-12-26T14:10:14.606976","MEAN_MOTION":15.05614846,"ECCENTRICITY":0.00029675,"INCLINATION":97.6036,"RA_OF_ASC_NODE":220.9541,"ARG_OF_PERICENTER":85.1648,"MEAN_ANOMALY":274.9918,"EPHEMERIS_TYPE":0,"CLASSIFICATION_TYPE":"U","NORAD_CAT_ID":65793,"ELEMENT_SET_NO":999,"REV_AT_EPOCH":1397,"BSTAR":-0.00018370925,"MEAN_MOTION_DOT":-2.708e-5,"MEAN_MOTION_DDOT":0}]
